{
  "districts": [
    {"name": "Adhikarigama", "latitude": 7.2135, "longitude": 80.7806, "name_si": "", "name_ta": ""},
    {"name": "Agalawatta", "latitude": 6.5423, "longitude": 80.1574, "name_si": "", "name_ta": ""},
    {"name": "Agarapathana", "latitude": 6.8641, "longitude": 80.7055, "name_si": "", "name_ta": ""},
    {"name": "Ahangama", "latitude": 5.9735, "longitude": 80.3623, "name_si": "", "name_ta": ""},
    {"name": "Ahungalla", "latitude": 6.3138, "longitude": 80.0351, "name_si": "", "name_ta": ""},
    {"name": "Akkaraipattu", "latitude": 7.2141, "longitude": 81.8482, "name_si": "අක්කරේපත්තුව", "name_ta": "அக்கரைப்பற்று"},
    {"name": "Akkarayan", "latitude": 9.3127, "longitude": 80.3112, "name_si": "", "name_ta": "அக்கராயன்"},
    {"name": "Akuressa", "latitude": 6.1005, "longitude": 80.4775, "name_si": "", "name_ta": ""},
    {"name": "Alawwa", "latitude": 7.294, "longitude": 80.2392, "name_si": "", "name_ta": ""},
    {"name": "Aluthgama", "latitude": 6.4326, "longitude": 79.9989, "name_si": "", "name_ta": ""},
    {"name": "Ambalangoda", "latitude": 6.2389, "longitude": 80.0541, "name_si": "අම්බලන්ගොඩ", "name_ta": "அம்பலாங்கொட"},
    {"name": "Ambalantota", "latitude": 6.1225, "longitude": 81.0239, "name_si": "", "name_ta": ""},
    {"name": "Ambanpola", "latitude": 7.9197, "longitude": 80.2393, "name_si": "", "name_ta": ""},
    {"name": "Ampara", "latitude": 7.2978, "longitude": 81.679, "name_si": "අම්පාර", "name_ta": "அம்பாறை"},
    {"name": "Anamaduwa", "latitude": 7.8776, "longitude": 80.0109, "name_si": "", "name_ta": ""},
    {"name": "Andigama", "latitude": 7.7764, "longitude": 79.9491, "name_si": "", "name_ta": ""},
    {"name": "Angoda", "latitude": 6.936, "longitude": 79.9257, "name_si": "අංගොඩ", "name_ta": "அங்கோடா"},
    {"name": "Angunukolapelessa", "latitude": 6.1669, "longitude": 80.8977, "name_si": "", "name_ta": ""},
    {"name": "Ankumbura", "latitude": 7.4393, "longitude": 80.571, "name_si": "", "name_ta": ""},
    {"name": "Anuradhapura", "latitude": 8.335, "longitude": 80.4106, "name_si": "අනුරාධපුරය", "name_ta": "அனுராதபுரம்"},
    {"name": "Aralaganwila", "latitude": 7.7826, "longitude": 81.1847, "name_si": "", "name_ta": ""},
    {"name": "Aranayake", "latitude": 7.1776, "longitude": 80.4572, "name_si": "", "name_ta": ""},
    {"name": "Ariyalai", "latitude": 9.6591, "longitude": 80.0477, "name_si": "", "name_ta": "அரியாலை"},
    {"name": "Atchuvely", "latitude": 9.7783, "longitude": 80.1159, "name_si": "", "name_ta": "அச்சுவேலி"},
    {"name": "Athurugiriya", "latitude": 6.8772, "longitude": 79.9899, "name_si": "අතුරුගිරිය", "name_ta": "அத்துருகிரிய"},
    {"name": "Avissawella", "latitude": 6.9522, "longitude": 80.2126, "name_si": "අවිස්සාවේල්ල", "name_ta": "அவிசாவளை"},
    {"name": "Ayagama", "latitude": 6.6387, "longitude": 80.3121, "name_si": "", "name_ta": ""},
    {"name": "Badalkumbura", "latitude": 6.8952, "longitude": 81.236, "name_si": "", "name_ta": ""},
    {"name": "Badulla", "latitude": 6.99, "longitude": 81.057, "name_si": "බදුල්ල", "name_ta": "பதுளை"},
    {"name": "Baduraliya", "latitude": 6.5173, "longitude": 80.2306, "name_si": "", "name_ta": ""},
    {"name": "Bakamuna", "latitude": 7.7772, "longitude": 80.817, "name_si": "", "name_ta": ""},
    {"name": "Balapitiya", "latitude": 6.2806, "longitude": 80.0406, "name_si": "", "name_ta": ""},
    {"name": "Ballaketuwa", "latitude": 6.8601, "longitude": 81.0953, "name_si": "", "name_ta": ""},
    {"name": "Bamunaakotuwa", "latitude": 7.5716, "longitude": 80.2489, "name_si": "බමුණාකොටුව", "name_ta": ""},
    {"name": "Bandaragama", "latitude": 6.7145, "longitude": 79.989, "name_si": "බණ්ඩාරගම", "name_ta": ""},
    {"name": "Bandarawela", "latitude": 6.8305, "longitude": 80.9888, "name_si": "", "name_ta": "பண்டாரவளை"},
    {"name": "Barigama", "latitude": 7.3281, "longitude": 80.5778, "name_si": "", "name_ta": ""},
    {"name": "Battaramulla", "latitude": 6.9022, "longitude": 79.9196, "name_si": "බත්තරමුල්ල", "name_ta": "பத்தரமுல்லை"},
    {"name": "Batticaloa", "latitude": 7.7356, "longitude": 81.6942, "name_si": "මඩකලපුව", "name_ta": "மட்டக்களப்பு"},
    {"name": "Beliatta", "latitude": 6.0481, "longitude": 80.7335, "name_si": "", "name_ta": ""},
    {"name": "Bentota", "latitude": 6.4215, "longitude": 79.9979, "name_si": "බෙන්තොට", "name_ta": "பெந்தோட்டை"},
    {"name": "Beruwala", "latitude": 6.4756, "longitude": 79.9834, "name_si": "බේරුවල", "name_ta": "பேருவளை"},
    {"name": "Bibile", "latitude": 7.1601, "longitude": 81.2254, "name_si": "", "name_ta": "பிபிலா"},
    {"name": "Bingiriya", "latitude": 7.5983, "longitude": 79.9373, "name_si": "", "name_ta": ""},
    {"name": "Bogahakumbura", "latitude": 6.8614, "longitude": 80.8757, "name_si": "", "name_ta": ""},
    {"name": "Bogawantalawa", "latitude": 6.7962, "longitude": 80.6781, "name_si": "", "name_ta": ""},
    {"name": "Bokkawala", "latitude": 7.3934, "longitude": 80.5532, "name_si": "", "name_ta": ""},
    {"name": "Boralanda", "latitude": 6.829, "longitude": 80.8945, "name_si": "", "name_ta": ""},
    {"name": "Boralesgamuwa", "latitude": 6.8411, "longitude": 79.9017, "name_si": "බොරලැස්ගමුව", "name_ta": "பொரலெஸ்கமுவ"},
    {"name": "Bowatta", "latitude": 7.5987, "longitude": 79.962, "name_si": "", "name_ta": ""},
    {"name": "Bulathkohupitiya", "latitude": 7.105, "longitude": 80.3357, "name_si": "", "name_ta": ""},
    {"name": "Bulathsinhala", "latitude": 6.6499, "longitude": 80.178, "name_si": "", "name_ta": ""},
    {"name": "Bulnewa", "latitude": 8.0443, "longitude": 80.4449, "name_si": "බුල්නෑව නගරය", "name_ta": ""},
    {"name": "Buttala", "latitude": 6.7602, "longitude": 81.247, "name_si": "", "name_ta": ""},
    {"name": "Chankanai", "latitude": 9.7487, "longitude": 79.9703, "name_si": "", "name_ta": "சங்கானை"},
    {"name": "Chavakachcheri", "latitude": 9.6579, "longitude": 80.1643, "name_si": "චාවකච්චේරිය", "name_ta": "சாவகச்சேரி"},
    {"name": "Chenkalady", "latitude": 7.7851, "longitude": 81.591, "name_si": "", "name_ta": "செங்கலடி"},
    {"name": "Chilaw", "latitude": 7.5765, "longitude": 79.7957, "name_si": "හලාවත", "name_ta": "சிலாபம்"},
    {"name": "Chunnakam", "latitude": 9.743, "longitude": 80.0288, "name_si": "", "name_ta": "சுன்னாகம்"},
    {"name": "Colombo", "latitude": 6.9389, "longitude": 79.8542, "name_si": "කොළඹ", "name_ta": "கொழும்பு"},
    {"name": "Dambadeniya", "latitude": 7.3682, "longitude": 80.1494, "name_si": "", "name_ta": ""},
    {"name": "Dambulla", "latitude": 7.8742, "longitude": 80.6511, "name_si": "දඹුල්ල", "name_ta": "தம்புள்ளை"},
    {"name": "Dankotuwa", "latitude": 7.2975, "longitude": 79.8822, "name_si": "", "name_ta": ""},
    {"name": "Daulagala", "latitude": 7.2265, "longitude": 80.5774, "name_si": "", "name_ta": ""},
    {"name": "Dehiattakandiya", "latitude": 7.6715, "longitude": 81.0409, "name_si": "", "name_ta": ""},
    {"name": "Dehiowita", "latitude": 6.9666, "longitude": 80.2659, "name_si": "", "name_ta": ""},
    {"name": "Dehiwala", "latitude": 6.8513, "longitude": 79.866, "name_si": "දෙහිවල", "name_ta": "தெஹிவளை"},
    {"name": "Deiyandara", "latitude": 6.153, "longitude": 80.6038, "name_si": "", "name_ta": ""},
    {"name": "Dekatana", "latitude": 6.9696, "longitude": 80.043, "name_si": "", "name_ta": ""},
    {"name": "Delgoda", "latitude": 6.9871, "longitude": 80.0133, "name_si": "", "name_ta": ""},
    {"name": "Delkanda", "latitude": 6.8631, "longitude": 79.9014, "name_si": "", "name_ta": ""},
    {"name": "Deltota", "latitude": 7.1727, "longitude": 80.696, "name_si": "", "name_ta": ""},
    {"name": "Deniyaya", "latitude": 6.3426, "longitude": 80.5606, "name_si": "", "name_ta": ""},
    {"name": "Deraniyagala", "latitude": 6.9273, "longitude": 80.3385, "name_si": "", "name_ta": ""},
    {"name": "Dharga Town", "latitude": 6.4387, "longitude": 80.0047, "name_si": "", "name_ta": ""},
    {"name": "Dickoya", "latitude": 6.8738, "longitude": 80.6039, "name_si": "", "name_ta": ""},
    {"name": "Digana", "latitude": 7.2965, "longitude": 80.7334, "name_si": "", "name_ta": ""},
    {"name": "Dikwella", "latitude": 5.9646, "longitude": 80.6947, "name_si": "", "name_ta": ""},
    {"name": "Divulapitiya", "latitude": 7.2245, "longitude": 80.0194, "name_si": "දිවුලපිටිය", "name_ta": "திவுலபிடிய"},
    {"name": "Diyabeduma", "latitude": 7.9342, "longitude": 80.868, "name_si": "", "name_ta": ""},
    {"name": "Diyatalawa", "latitude": 6.807, "longitude": 80.9572, "name_si": "", "name_ta": ""},
    {"name": "Dolosbage", "latitude": 7.0817, "longitude": 80.469, "name_si": "", "name_ta": ""},
    {"name": "Dondra", "latitude": 5.9281, "longitude": 80.5894, "name_si": "දෙවුන්දර තුඩුව", "name_ta": "தேவேந்திரமுனை"},
    {"name": "Dungalpitiya", "latitude": 7.1469, "longitude": 79.832, "name_si": "", "name_ta": ""},
    {"name": "Eheliyagoda", "latitude": 6.8534, "longitude": 80.2616, "name_si": "", "name_ta": ""},
    {"name": "Ekala", "latitude": 7.1013, "longitude": 79.9103, "name_si": "", "name_ta": ""},
    {"name": "Elephant Pass", "latitude": 9.5249, "longitude": 80.4055, "name_si": "අලිමංකඩ", "name_ta": "ஆனையிறவு"},
    {"name": "Ella", "latitude": 6.8736, "longitude": 81.049, "name_si": "", "name_ta": ""},
    {"name": "Elpitiya", "latitude": 6.2919, "longitude": 80.1619, "name_si": "", "name_ta": ""},
    {"name": "Embilipitiya", "latitude": 6.3341, "longitude": 80.8538, "name_si": "", "name_ta": ""},
    {"name": "Eppawala", "latitude": 8.1461, "longitude": 80.4114, "name_si": "එප්පාවල", "name_ta": "எப்பாவல"},
    {"name": "Etampitiya", "latitude": 6.9361, "longitude": 80.9893, "name_si": "", "name_ta": ""},
    {"name": "Galagedara", "latitude": 7.373, "longitude": 80.5247, "name_si": "", "name_ta": ""},
    {"name": "Galapitamada", "latitude": 7.1399, "longitude": 80.2348, "name_si": "", "name_ta": ""},
    {"name": "Galenbindunuwewa", "latitude": 8.2924, "longitude": 80.719, "name_si": "", "name_ta": ""},
    {"name": "Galewela", "latitude": 7.7597, "longitude": 80.5711, "name_si": "ගලේවෙල", "name_ta": "கலேவெல"},
    {"name": "Galgamuwa", "latitude": 7.9957, "longitude": 80.2706, "name_si": "", "name_ta": ""},
    {"name": "Galle", "latitude": 6.0328, "longitude": 80.215, "name_si": "ගාල්ල", "name_ta": "காலி"},
    {"name": "Galnewa", "latitude": 8.0355, "longitude": 80.4802, "name_si": "ගල්නෑව නගරය", "name_ta": ""},
    {"name": "Gampaha", "latitude": 7.0926, "longitude": 79.9951, "name_si": "ගම්පහ", "name_ta": "கம்பஹா"}
  ],
  "bounding_box": {
    "min_lat": 5.7,
    "max_lat": 10.0,
    "min_lon": 79.4,
    "max_lon": 82.1
  }
}
